satname,norad_id,inclination_deg,eccentricity,mean_motion_rev_per_day,perigee_km,apogee_km,l1,l2
STARLINK-1234,45190,53.0339,0.000131,15.82069864,323.70996135362293,325.4660753084263,1 45190U 20012N   26179.19421633  .00105092  00000+0  50094-3 0  9995,2 45190  53.0339 138.4748 0001310 123.2608 236.8540 15.82069864353240
STARLINK-1269,45197,53.1541,0.000242,15.36761572,454.0393538311828,457.34692761929364,1 45197U 20012V   26179.41843398  .00047031  00000+0  12931-2 0  9998,2 45197  53.1541 243.4151 0002420 350.0151  10.0804 15.36761572351892
STARLINK-1154,45198,53.0388,0.0004288,15.65368933,369.2833868649359,375.072456941959,1 45198U 20012W   26179.73837314  .00036090  00000+0  35922-3 0  9994,2 45198  53.0388 192.2108 0004288  40.7841 319.3493 15.65368933352589
STARLINK-1199,45201,53.1547,0.0005677,15.36743287,451.8677528692997,459.62694515916974,1 45201U 20012Z   26179.51957008  .00047838  00000+0  13152-2 0  9990,2 45201  53.1547 227.2089 0005677 356.8874   3.2094 15.36743287352155
STARLINK-1209,45206,53.0361,0.0001397,15.72659471,350.3595850471238,352.2397896575703,1 45206U 20012AE  26179.65123798  .00061800  00000+0  45170-3 0  9992,2 45206  53.0361 152.2734 0001397 110.3283 249.7885 15.72659471352245
STARLINK-1231,45212,53.0359,0.0002232,15.29156532,476.80208435959867,479.8628123213384,1 45212U 20012AL  26179.40714830  .00040431  00000+0  14143-2 0  9997,2 45212  53.0359 223.8406 0002232  68.2981 291.8255 15.29156532352123
STARLINK-1271,45217,53.1553,0.0004643,15.36928827,452.02462401425146,458.37005828344263,1 45217U 20012AR  26179.51465396  .00039906  00000+0  10937-2 0  9996,2 45217  53.1553 227.3281 0004643   0.3506 359.7500 15.36928827352155
STARLINK-1191,45222,53.1526,0.0003579,15.41080207,440.4787575946384,445.3612702051878,1 45222U 20012AW  26179.37519782  .00050675  00000+0  12087-2 0  9999,2 45222  53.1526 200.3839 0003579 340.2187  19.8679 15.41080207352528
STARLINK-1212,45223,53.0374,0.000152,15.71481473,353.63884989831786,355.6856208658737,1 45223U 20012AX  26179.97592753  .00060345  00000+0  46374-3 0  9997,2 45223  53.0374 166.1485 0001520  98.7998 261.3191 15.71481473353037
STARLINK-1215,45225,53.1539,0.0005422,15.37087223,451.0231061602108,458.4326648420483,1 45225U 20012AZ  26179.77215608  .00041470  00000+0  11300-2 0  9996,2 45225  53.1539 200.3650 0005422   2.8019 357.3014 15.37087223352512
STARLINK-1221,45227,53.0633,0.0002927,15.4583572,426.9311540635863,430.9160073275252,1 45227U 20012BB  26179.93958908  .00060321  00000+0  12228-2 0  9999,2 45227  53.0633 100.9542 0002927  32.5491 327.5695 15.45835720353892
STARLINK-1222,45228,53.0509,0.0003826,15.56680745,394.6790363136597,399.86357875058366,1 45228U 20012BC  26179.95568387  .00031248  00000+0  43523-3 0  9999,2 45228  53.0509 166.5523 0003826  58.5243 301.6142 15.56680745352913
STARLINK-1226,45229,53.1524,0.0005489,15.46384259,423.57822355397,431.04924737136116,1 45229U 20012BD  26179.74278112  .00058615  00000+0  11662-2 0  9996,2 45229  53.1524 195.1919 0005489   2.6146 357.4889 15.46384259352522
STARLINK-1227,45230,53.151,0.0005301,15.46470924,423.4520445374701,430.6669138447078,1 45230U 20012BE  26179.75132070  .00058266  00000+0  11560-2 0  9990,2 45230  53.1510 195.2401 0005301 356.9466   3.1508 15.46470924352640
STARLINK-1246,45235,53.154,0.0004363,15.36954771,452.13909231812977,458.1017927624898,1 45235U 20012BK  26179.48918355  .00047499  00000+0  12975-2 0  9990,2 45235  53.1540 242.7022 0004363 326.1115  33.9610 15.36954771351967
STARLINK-1270,45237,53.0369,0.0001628,15.70456511,356.4947913607739,358.6879445173745,1 45237U 20012BM  26179.26492013  .00055870  00000+0  44873-3 0  9991,2 45237  53.0369 171.4932 0001628 103.5221 256.5977 15.70456511352890
STARLINK-1279,45360,53.0338,0.0003089,15.83174801,319.3994816940276,323.53849827464,1 45360U 20019A   26179.91668981  .00096974  00000+0  43953-3 0  9994,2 45360  53.0338 269.3883 0003089 357.0419  37.7179 15.83174801  5984
STARLINK-1301,45361,53.0322,0.0004902,15.84834773,313.5081629228471,320.0718693694771,1 45361U 20019B   26179.91668981  .00113999  00000+0  47586-3 0  9998,2 45361  53.0322 271.4826 0004902 355.1686  66.4143 15.84834773  5947
STARLINK-1262,45366,53.1537,0.0002765,15.35914332,456.315775987644,460.0962736803767,1 45366U 20019G   26179.92936191  .00047725  00000+0  13480-2 0  9993,2 45366  53.1537   7.2368 0002765 170.3378 189.7679 15.35914332346809
STARLINK-1273,45367,53.043,0.0001155,15.60031765,386.78379950398266,388.3466767209866,1 45367U 20019H   26179.91668981  .00125630  00000+0  15068-2 0  9998,2 45367  53.0430 339.1916 0001155 138.1726 215.3403 15.60031765  5898
STARLINK-1277,45369,53.042,7.46e-05,15.69191675,360.7076511144878,361.7131617475279,1 45369U 20019K   26179.82471725  .00054297  00000+0  45976-3 0  9990,2 45369  53.0420 332.4046 0000746  21.0436 339.0611 15.69191675347263
STARLINK-1281,45370,53.1569,0.000314,15.36718694,453.67439731509785,457.9661224743122,1 45370U 20019L   26179.92941741  .00048814  00000+0  13432-2 0  9992,2 45370  53.1569   6.7457 0003140 145.1908 214.9301 15.36718694346817
STARLINK-1300,45374,53.1579,0.0002846,15.37323491,452.0833477565411,455.9722159503717,1 45374U 20019Q   26179.93380700  .00052006  00000+0  14021-2 0  9992,2 45374  53.1579   6.5475 0002846 162.1013 198.0092 15.37323491346815
STARLINK-1302,45375,53.045,0.000244,15.69466732,358.77877159932723,362.06718886968065,1 45375U 20019R   26179.79677728  .00052327  00000+0  43835-3 0  9998,2 45375  53.0450 328.3594 0002440 121.0989 239.0267 15.69466732347313
STARLINK-1304,45376,53.042,0.00016,15.65383656,371.0555521180122,373.2156393486466,1 45376U 20019S   26179.66174664  .00042301  00000+0  41966-3 0  9990,2 45376  53.0420 330.9595 0001600 158.7581 201.3501 15.65383656347269
STARLINK-1305,45377,53.0386,0.0004674,15.7425136,343.61914972564045,349.9055856545565,1 45377U 20019T   26179.75578139  .00071861  00000+0  48916-3 0  9991,2 45377  53.0386 307.7073 0004674 324.9594  35.1117 15.74251360347609
STARLINK-1319,45379,53.0363,0.0001444,15.81380036,325.56895898658877,327.5052688706919,1 45379U 20019V   26179.89129434  .00096686  00000+0  47659-3 0  9993,2 45379  53.0363 297.7294 0001444   3.8869 356.2163 15.81380036347754
STARLINK-1266,45383,53.0457,0.0001993,15.67795749,363.8662278329175,366.55412601763965,1 45383U 20019Z   26179.64457666  .00046589  00000+0  41876-3 0  9994,2 45383  53.0457 315.6204 0001993 321.2445  38.8427 15.67795749347470
STARLINK-1267,45384,53.0438,0.0001112,15.72017332,352.3836095674442,353.8806438212214,1 45384U 20019AA  26179.72501816  .00061903  00000+0  46491-3 0  9996,2 45384  53.0438 306.2721 0001112  57.9496 302.1629 15.72017332347610
STARLINK-1272,45386,53.0388,0.0001484,15.76590354,339.1124612222666,341.1064367683284,1 45386U 20019AC  26179.68934983  .00077767  00000+0  47765-3 0  9998,2 45386  53.0388 284.5628 0001484  47.7181 312.3964 15.76590354347912
STARLINK-1274,45387,53.0185,0.0005105,15.65780782,367.5487434874285,374.4396064170551,1 45387U 20019AD  26179.91668981  .00078418  00000+0  75743-3 0  9998,2 45387  53.0185 283.9061 0005105 262.3453 233.6333 15.65780782  5902
STARLINK-1280,45388,53.0332,0.000464,15.8749719,306.1995040198517,312.40544785352085,1 45388U 20019AE  26179.91668981  .00114360  00000+0  41946-3 0  9994,2 45388  53.0332 289.0503 0004640 351.4660 178.7220 15.87497190  5410
STARLINK-1283,45389,53.0381,0.000262,15.742197,345.09058556862965,348.61448008383104,1 45389U 20019AF  26179.69762656  .00067259  00000+0  45916-3 0  9999,2 45389  53.0381 283.5012 0002620 309.3162  50.7624 15.74219700347932
STARLINK-1284,45390,53.0399,0.0003185,15.72444955,349.76818148938946,354.0552225125648,1 45390U 20019AG  26179.73811031  .00061145  00000+0  45101-3 0  9992,2 45390  53.0399 307.4525 0003185  57.7933 302.3393 15.72444955347596
STARLINK-1297,45395,53.0408,0.0001313,15.75290561,342.9218925070718,344.6870743406189,1 45395U 20019AM  26179.94218813  .00071021  00000+0  46249-3 0  9997,2 45395  53.0408 305.4613 0001313  17.7640 342.3425 15.75290561346820
STARLINK-1307,45397,53.0534,5.74e-05,15.58099551,392.76888460839746,393.54622922353064,1 45397U 20019AP  26179.79902267  .00035891  00000+0  47303-3 0  9992,2 45397  53.0534 314.2241 0000574 283.0110  77.0838 15.58099551347339
STARLINK-1255,45399,53.0341,0.000121,15.67740838,364.5516716170341,366.1835997388689,1 45399U 20019AR  26179.58564940  .00046576  00000+0  41960-3 0  9998,2 45399  53.0341 281.6658 0001210 193.9859 166.1123 15.67740838347757
STARLINK-1260,45404,53.155,0.0002875,15.39899198,444.445068990427,448.3691818625475,1 45404U 20019AW  26179.80006435  .00050400  00000+0  12500-2 0  9998,2 45404  53.1550 329.5982 0002875 173.0285 187.0760 15.39899198347032
STARLINK-1263,45405,53.1577,0.0001735,15.36945291,453.96296618458746,456.33411626739417,1 45405U 20019AX  26179.74569220  .00048627  00000+0  13285-2 0  9997,2 45405  53.1577 331.5552 0001735 202.1373 157.9556 15.36945291347003
STARLINK-1265,45406,53.1545,7.07e-05,15.40314073,444.69922653068716,445.6640437856986,1 45406U 20019AY  26179.72282452  .00060357  00000+0  14730-2 0  9995,2 45406  53.1545 329.8982 0000707 163.6307 196.4721 15.40314073347029
STARLINK-1278,45408,53.0414,0.0001633,15.7625149,339.97503083846823,342.1695245885703,1 45408U 20019BA  26179.76462073  .00079726  00000+0  49681-3 0  9994,2 45408  53.0414 305.1175 0001633  41.0699 319.0443 15.76251490347350
STARLINK-1296,45412,53.1555,0.0001735,15.40497044,443.4575838438368,445.82508792638964,1 45412U 20019BE  26179.82476122  .00056249  00000+0  13659-2 0  9996,2 45412  53.1555 329.0807 0001735 149.8231 210.2874 15.40497044347045
STARLINK-1309,45414,53.0603,0.000155,15.74836592,344.0541169132748,346.1383192108733,1 45414U 20019BG  26179.73710518  .00068348  00000+0  45425-3 0  9998,2 45414  53.0603 299.4292 0001550  35.1160 324.9961 15.74836592347414
